NOAA 10                 
1 16969U 86073A   24326.37568785  .00000351  00000+0  15655-3 0  9994
2 16969  98.6577 310.9791 0011149 229.2105 272.2481 14.28829230987854
